{"type": "FeatureCollection", "features": [{"type": "Feature", "properties": {"id": 1}, "geometry": {"type": "Polygon", "coordinates": [[[-48.19962300040112, -18.907616500401105], [-48.200366899812536, -18.907829299782293], [-48.200513199724355, -18.907824099902257], [-48.20062210042954, -18.90779689990694], [-48.20268729997889, -18.907608800405797], [-48.203061899986665, -18.90756370030448], [-48.204206200056035, -18.907426100434122], [-48.20697119986096, -18.907044599928327], [-48.20692409966745, -18.906720100252357], [-48.20724469988295, -18.906684399865128], [-48.2101397002869, -18.90627039965915], [-48.21092919982266, -18.90613830004247], [-48.21322189997068, -18.905817400352703], [-48.21323429982306, -18.90588899987739], [-48.21332299995646, -18.906031000130497], [-48.21335320009007, -18.906054600139612], [-48.21347849993276, -18.907174200329052], [-48.213552700296816, -18.90770080015176], [-48.213639900361045, -18.908319999568278], [-48.21371500004716, -18.90890420006872], [-48.21371629956752, -18.90891240008716], [-48.213818100125195, -18.909532100426077], [-48.21391889973739, -18.91014550011471], [-48.214015000391896, -18.910730799586702], [-48.21411029975047, -18.911315299561352], [-48.21435759982336, -18.911787100094557], [-48.21453080025617, -18.912038600001324], [-48.21486800015805, -18.912541800363726], [-48.21458420020065, -18.912862299855192], [-48.21526040044711, -18.913227400324217], [-48.21565999980908, -18.9134757004432], [-48.21661770044648, -18.914070600178036], [-48.216700299579145, -18.914121900205487], [-48.21326850014111, -18.916202999768586], [-48.21128779999191, -18.91736860028061], [-48.208860099913636, -18.91883620033036], [-48.20586589979138, -18.920646299986686], [-48.20575800003161, -18.92048310001502], [-48.20541429983001, -18.91996289976794], [-48.205368400231464, -18.919893300335502], [-48.20837109984632, -18.918106600139424], [-48.21078309956033, -18.916671499789857], [-48.21019350042968, -18.916182399897764], [-48.209794400191356, -18.915863799774513], [-48.20887399983519, -18.915129200252352], [-48.20740799967939, -18.91395899970803], [-48.207140599758816, -18.913569700281414], [-48.206039100224245, -18.911918199665138], [-48.20478020044584, -18.91266429971762], [-48.20471239965747, -18.91270429976356], [-48.204279799672975, -18.912959100182263], [-48.2017593003514, -18.914444100314938], [-48.20068700000502, -18.915044299754584], [-48.20005570021033, -18.91536570036675], [-48.19999239962948, -18.915324100426858], [-48.19912109955908, -18.914752199954023], [-48.19900099959642, -18.914743699562052], [-48.196788300439664, -18.916058799773737], [-48.19618690040511, -18.91509869974516], [-48.196109500253215, -18.91497509962113], [-48.195539099849555, -18.914099599716735], [-48.19516869967572, -18.913567200166085], [-48.19615649972263, -18.913021299992977], [-48.19605549956162, -18.912930900140907], [-48.195992500253624, -18.912895299578395], [-48.195542299637395, -18.91264059988373], [-48.19543050041722, -18.912518800202406], [-48.195361099734896, -18.91248740037321], [-48.19530140003951, -18.912484500059577], [-48.195201700298185, -18.91247499962151], [-48.19522590015515, -18.912448000175004], [-48.19617260028525, -18.911392400239038], [-48.19694710002858, -18.910615000182077], [-48.19731569975971, -18.91032760023853], [-48.19741279956099, -18.91026209991594], [-48.197341000386814, -18.91014090008241], [-48.197712899730504, -18.909322599758127], [-48.19810439979818, -18.90856440022685], [-48.19861530015595, -18.908142700025564], [-48.19962300040112, -18.907616500401105]]]}}, {"type": "Feature", "properties": {"id": 2}, "geometry": {"type": "Polygon", "coordinates": [[[-48.24745800028643, -18.935643399822993], [-48.25208060013955, -18.931387699982338], [-48.25215979983483, -18.931474200373998], [-48.252364999944746, -18.931532999848002], [-48.25209390021331, -18.932391999890854], [-48.25343719956709, -18.932769000189182], [-48.254124099947205, -18.932968200022344], [-48.254375500029255, -18.93221409960097], [-48.255768000392834, -18.932592299594887], [-48.25639460033051, -18.932780200345917], [-48.25664439961929, -18.932001599694047], [-48.260126599762714, -18.93297880033134], [-48.261522700112494, -18.933386599711753], [-48.26146939999279, -18.933577899900115], [-48.261462600218806, -18.93359830012139], [-48.26140810040346, -18.933584199651023], [-48.26101959957481, -18.93348399988662], [-48.260540099945615, -18.933492600103364], [-48.26000330001227, -18.933231699583246], [-48.25983220039569, -18.93317550004923], [-48.259683099995016, -18.933165700136897], [-48.259538900000166, -18.933170599643404], [-48.25937729992239, -18.9331472001831], [-48.259101000310864, -18.933066600243365], [-48.25851390039617, -18.93310119986046], [-48.258148000429856, -18.933095099758987], [-48.25796919991859, -18.933164999565008], [-48.257080999788286, -18.933240699998237], [-48.256516599661325, -18.93342070020509], [-48.25625150020653, -18.933397600219052], [-48.25605140015193, -18.93339949958721], [-48.25587959996352, -18.933393900408134], [-48.255581900084564, -18.933348300283797], [-48.25535150007164, -18.933416899670135], [-48.25526329996126, -18.933382600426626], [-48.255170099620386, -18.933416899670135], [-48.25498879989317, -18.933402200251294], [-48.25482209976008, -18.933431599988296], [-48.25469470000036, -18.933412000163628], [-48.254425100338096, -18.933485499955793], [-48.25424860029261, -18.933519800098622], [-48.254131000445284, -18.93347570004346], [-48.25393770016467, -18.93350690022322], [-48.25381669998069, -18.933512799775826], [-48.25354279976034, -18.933588500209055], [-48.253532999848005, -18.93365709959545], [-48.25342519991301, -18.93367179991361], [-48.25334180038374, -18.93364240017661], [-48.25320950021819, -18.933710999562948], [-48.253111600020304, -18.933713300028728], [-48.252998700029934, -18.933715899968774], [-48.25272419996179, -18.933666900407104], [-48.252430799741546, -18.93375609966421], [-48.251720800274654, -18.93387909994044], [-48.251491900330905, -18.93391940035997], [-48.25076740019534, -18.934175299750223], [-48.25054510037603, -18.934225200432593], [-48.250391800141415, -18.93429029965756], [-48.250169399598065, -18.934604600122157], [-48.249867599709944, -18.934740799748056], [-48.24972089959982, -18.934742600190816], [-48.2496174002228, -18.934700500227848], [-48.24949480014487, -18.934731099660496], [-48.24938359987317, -18.934953500203846], [-48.24923799963392, -18.935034000318808], [-48.24916509968955, -18.935122099705097], [-48.24899529959333, -18.935509700312366], [-48.24791959980962, -18.935603299952277], [-48.24745800028643, -18.935643399822993]]]}}, {"type": "Feature", "properties": {"id": 3}, "geometry": {"type": "Polygon", "coordinates": [[[-48.38318569976019, -19.001720599725843], [-48.380650900318756, -19.00075670006163], [-48.38106169983752, -18.999825999770053], [-48.383629800275, -19.000802400010684], [-48.3833795998886, -19.001312999994923], [-48.38318569976019, -19.001720599725843]]]}}, {"type": "Feature", "properties": {"id": 4}, "geometry": {"type": "Polygon", "coordinates": [[[-48.36197799968488, -18.989349200105437], [-48.3622718999282, -18.98801719983385], [-48.36273599956667, -18.986957200414395], [-48.36529749987966, -18.991395399677913], [-48.36670070037695, -18.993886099963504], [-48.36663100022042, -18.993921699626696], [-48.36391290006026, -18.995310799653623], [-48.36391139999108, -18.995252799676905], [-48.363193499980014, -18.99423929970385], [-48.36247569979366, -18.992592499843965], [-48.362180099831676, -18.991579099695628], [-48.36209560043159, -18.990143400397585], [-48.36197799968488, -18.989349200105437]]]}}, {"type": "Feature", "properties": {"id": 5}, "geometry": {"type": "Polygon", "coordinates": [[[-48.37137079972257, -18.99149889995425], [-48.37439999966023, -18.989948900421382], [-48.37436840018148, -18.990111499645934], [-48.37434540002016, -18.990677499666845], [-48.37426060024649, -18.990929799970274], [-48.37411559985503, -18.991127899932565], [-48.3738399000913, -18.99140669965942], [-48.373715399745834, -18.991528900438368], [-48.37365110001821, -18.991822000285026], [-48.37359310004149, -18.99253559973812], [-48.373558000401374, -18.993695699996522], [-48.372391399843195, -18.995409600072946], [-48.37044170022426, -18.991974000099958], [-48.37137079972257, -18.99149889995425]]]}}, {"type": "Feature", "properties": {"id": 6}, "geometry": {"type": "Polygon", "coordinates": [[[-48.21483279979384, -18.967988900367402], [-48.215207100327405, -18.965490699735938], [-48.21615259986254, -18.95961170021974], [-48.2169474998272, -18.954732899703515], [-48.21705639963312, -18.95410279960447], [-48.217913399583665, -18.94884399955089], [-48.22032759993874, -18.950462200070433], [-48.22130190026246, -18.951115400155572], [-48.22232339970509, -18.951800099894626], [-48.224462099945924, -18.953217899986043], [-48.22420340006681, -18.953531099680447], [-48.223825700095915, -18.953987699872414], [-48.22316549968804, -18.95488850040391], [-48.22309070037551, -18.954990499711755], [-48.22202879978926, -18.95650310003799], [-48.22171450022398, -18.95695069981491], [-48.22100149971942, -18.958024500230465], [-48.220376999698715, -18.959060399617726], [-48.22036240010465, -18.959082999580744], [-48.22006139971376, -18.95954979988329], [-48.21943340043106, -18.96043669959397], [-48.219357799822546, -18.960602700054494], [-48.219191300238265, -18.960739600252282], [-48.21900150011908, -18.961016399886887], [-48.21608449959996, -18.965309400008778], [-48.216034400167416, -18.9655633002061], [-48.215879400214135, -18.967018899702396], [-48.2157773001822, -18.968074200164153], [-48.21483279979384, -18.967988900367402]]]}}, {"type": "Feature", "properties": {"id": 7}, "geometry": {"type": "Polygon", "coordinates": [[[-48.26600279968943, -18.97002189969089], [-48.26607299986898, -18.969811200226673], [-48.266250699610055, -18.969852300143486], [-48.26656359983025, -18.969998799704797], [-48.26676829991709, -18.970167900128445], [-48.26695559992095, -18.97031959956979], [-48.26715519995247, -18.970501500044122], [-48.267555499886384, -18.970763200061583], [-48.267791499977704, -18.97101600038809], [-48.26810030018868, -18.971447200128125], [-48.2683996997863, -18.971809699757785], [-48.268492800302454, -18.971987500222895], [-48.26861800032043, -18.972172599585747], [-48.2686834997437, -18.97226100024494], [-48.26899530009297, -18.972495400442313], [-48.269297400354674, -18.9726892996714], [-48.269457399639236, -18.972772799924712], [-48.2699399003061, -18.973124100296957], [-48.27002400040726, -18.973323300130176], [-48.269908200103316, -18.973670799967408], [-48.269579999717166, -18.97357370016607], [-48.26812450004559, -18.972429599746192], [-48.26783259989452, -18.972333400166235], [-48.267831099825344, -18.97226959956231], [-48.26791379968205, -18.97202710007059], [-48.26759199977096, -18.97191189961444], [-48.26612129975814, -18.970743600236915], [-48.2657988999992, -18.97065259963773], [-48.26600279968943, -18.97002189969089]]]}}, {"type": "Feature", "properties": {"id": 8}, "geometry": {"type": "Polygon", "coordinates": [[[-48.26156380002931, -18.993974499723322], [-48.26147169955925, -18.99101270037579], [-48.261462399669995, -18.989287600142575], [-48.261430200343455, -18.987985700179877], [-48.26113820036761, -18.98726589990133], [-48.26112280037688, -18.986408800125957], [-48.2617484002684, -18.984207900074466], [-48.26176380025913, -18.984153699733383], [-48.26233400011398, -18.98432559974657], [-48.26292860037455, -18.98654509957663], [-48.26272779974812, -18.98673050021239], [-48.26242580021045, -18.987163200021598], [-48.262277799680646, -18.99024999973767], [-48.262234800395674, -18.991388900277457], [-48.26226410030796, -18.991849099556248], [-48.2623097004323, -18.992126099739664], [-48.26253579988719, -18.992423199770826], [-48.26269610044466, -18.992581400411268], [-48.26298749967333, -18.992755099967837], [-48.26334230020694, -18.99285090024881], [-48.2643912001937, -18.993001099620983], [-48.26498070039895, -18.99307839994816], [-48.26559479976015, -18.993194700275126], [-48.26590600026168, -18.993353599688817], [-48.26621290020512, -18.993554000116944], [-48.266489000167155, -18.993796399784003], [-48.26649629996422, -18.993816200157482], [-48.267422800421855, -18.993758700203784], [-48.26783479963626, -18.993733199927192], [-48.26783739957631, -18.994043900405643], [-48.266668600175706, -18.994109600377726], [-48.26660540031895, -18.994113099639776], [-48.266868899879796, -18.99477189980331], [-48.26697540029443, -18.99500820026816], [-48.26712520036767, -18.99552409995721], [-48.267331199974876, -18.996203900189812], [-48.26610810040847, -18.996203900189812], [-48.2652267000521, -18.995700299629107], [-48.264565700146875, -18.995448500248017], [-48.26350979983732, -18.994982100143773], [-48.263304099704385, -18.994845000296493], [-48.26294970026839, -18.994537200131617], [-48.26238020008611, -18.994119000091757], [-48.26156380002931, -18.993974499723322]]]}}, {"type": "Feature", "properties": {"id": 9}, "geometry": {"type": "Polygon", "coordinates": [[[-48.19424530008047, -18.91189699994652], [-48.19425810013115, -18.911879800412407], [-48.19599789978321, -18.909543000209226], [-48.193696100294744, -18.908165200163808], [-48.191473499602296, -18.906775399564992], [-48.18998200006922, -18.90584279990526], [-48.189916800120216, -18.905802100186747], [-48.18975479984408, -18.905700799652152], [-48.19104560037414, -18.90434270015544], [-48.194988700368185, -18.905995899591062], [-48.19774009972576, -18.90705670030644], [-48.197781400191445, -18.907072700144965], [-48.199623100225836, -18.907580600364383], [-48.19962300040112, -18.907616500401105], [-48.19861530015595, -18.908142700025564], [-48.19810439979818, -18.90856440022685], [-48.197712899730504, -18.909322599758127], [-48.197341000386814, -18.91014090008241], [-48.19741279956099, -18.91026209991594], [-48.19731569975971, -18.91032760023853], [-48.19694710002858, -18.910615000182077], [-48.19617260028525, -18.911392400239038], [-48.19522590015515, -18.912448000175004], [-48.195201700298185, -18.91247499962151], [-48.19512199968051, -18.912442499921383], [-48.19424530008047, -18.91189699994652]]]}}, {"type": "Feature", "properties": {"id": 10}, "geometry": {"type": "Polygon", "coordinates": [[[-48.17563889981534, -18.915548400338366], [-48.17442810027654, -18.914375000006203], [-48.172398000367366, -18.91240779958025], [-48.17238699986012, -18.912395899750948], [-48.173225999879946, -18.91155660025686], [-48.17406979958156, -18.910657199969762], [-48.174723399864945, -18.90999389959876], [-48.17525819970609, -18.909577900199906], [-48.175983100040014, -18.909083200229475], [-48.176672399811366, -18.908689700069544], [-48.17695080023918, -18.90857179984863], [-48.17746860019571, -18.90835240034295], [-48.17805090042867, -18.908138799665835], [-48.178858999743, -18.90792519988804], [-48.17935810009618, -18.90773410024849], [-48.17991669959599, -18.907498000332396], [-48.18062970010055, -18.907149500449066], [-48.18086849978141, -18.907006400325088], [-48.18134280042983, -18.906722200169384], [-48.18265129961776, -18.905775500039226], [-48.18273570009245, -18.905918500338487], [-48.18253750030533, -18.906304000129467], [-48.18159979969096, -18.90795330010468], [-48.18145130003745, -18.908214500099064], [-48.18005399999208, -18.910811299701663], [-48.180016000038336, -18.91088170043008], [-48.17918429981552, -18.91256590039592], [-48.17831139985117, -18.914137800219237], [-48.17828119971756, -18.914192100385094], [-48.17778599972405, -18.915194199652547], [-48.17708289985592, -18.916420900104413], [-48.17699140013298, -18.916581000113013], [-48.17695169956124, -18.91665030007124], [-48.17688899972751, -18.916759699900183], [-48.17563889981534, -18.915548400338366]]]}}, {"type": "Feature", "properties": {"id": 11}, "geometry": {"type": "Polygon", "coordinates": [[[-48.19258489977324, -18.924194399751684], [-48.19258939998076, -18.924192100185223], [-48.192716500266215, -18.924038200102814], [-48.19302119956865, -18.92369259963374], [-48.19340349957179, -18.92345179986063], [-48.19446259966918, -18.922829700130535], [-48.19449780003339, -18.92287909989051], [-48.19462049993609, -18.923051199553186], [-48.19275550026606, -18.924145599839505], [-48.19369129971369, -18.924827599813852], [-48.19272909976809, -18.925495500217096], [-48.192088500084196, -18.9257308995613], [-48.191950300366045, -18.925725300382283], [-48.19050780039464, -18.926583800402], [-48.19038730023368, -18.926651499567015], [-48.19035469980952, -18.92666979987132], [-48.19020849972242, -18.926561300263756], [-48.1902442001097, -18.9265409998672], [-48.19035540038141, -18.926477899835163], [-48.1905625996842, -18.926360399812552], [-48.19064490024192, -18.926313699817342], [-48.1912448002073, -18.925965100109238], [-48.19170760032546, -18.92569910043312], [-48.19194260037068, -18.92554599984794], [-48.191514200220126, -18.924818600298124], [-48.19201510011675, -18.9244999003501], [-48.19258489977324, -18.924194399751684]]]}}, {"type": "Feature", "properties": {"id": 12}, "geometry": {"type": "Polygon", "coordinates": [[[-48.23597279980481, -18.93685380006275], [-48.236047500191944, -18.936818499873823], [-48.242123800173204, -18.935773600071514], [-48.24219060001616, -18.93611039977509], [-48.242142899974795, -18.93646320021645], [-48.24227520014034, -18.93794670027995], [-48.242113400413075, -18.937945999708063], [-48.24182319998067, -18.937932499984868], [-48.2407645999063, -18.93790720025703], [-48.23950250034005, -18.937948399998618], [-48.23836669976333, -18.938137999568994], [-48.23610169963371, -18.940358299795662], [-48.236051000353314, -18.94040799992922], [-48.235889699749805, -18.94023640028962], [-48.23579229957494, -18.940113700386917], [-48.23570439983814, -18.93983789989909], [-48.235660199958204, -18.939723599664376], [-48.23597119991092, -18.93895029961658], [-48.235966300404414, -18.93885979993979], [-48.23569409990273, -18.93848360003807], [-48.23568759960301, -18.938474999821324], [-48.23574489990716, -18.938439699632397], [-48.23583310001749, -18.93806380010426], [-48.235804399953054, -18.937787299943864], [-48.23570430001337, -18.93755160022613], [-48.235698100087234, -18.937239799876807], [-48.23578580017448, -18.93701340004833], [-48.235880499685265, -18.936897499919667], [-48.23597279980481, -18.93685380006275]]]}}, {"type": "Feature", "properties": {"id": 13}, "geometry": {"type": "Polygon", "coordinates": [[[-48.323542800160055, -18.9733825996272], [-48.323517700081766, -18.97337290043896], [-48.32342480011437, -18.97333660020388], [-48.32254220006246, -18.972707199777403], [-48.32203079968161, -18.97243329955711], [-48.32172470013478, -18.972146299811868], [-48.321539699697325, -18.971999499876972], [-48.321335600357656, -18.971897499669808], [-48.32112509964361, -18.971795399637926], [-48.320888999727515, -18.971757200034688], [-48.32070229957145, -18.971626999786167], [-48.32035340038908, -18.971396400123695], [-48.32025340027417, -18.971334800160832], [-48.32004699956934, -18.971231200059776], [-48.319992399929276, -18.97104759986678], [-48.319679399884365, -18.970914000180926], [-48.31888790025636, -18.97081459991381], [-48.318384000221386, -18.971071600074254], [-48.31774019985028, -18.971049799608522], [-48.317385300391265, -18.971012799700873], [-48.316967899848635, -18.9710456995993], [-48.31838419987088, -18.968267399720673], [-48.319811399676325, -18.96875420004625], [-48.321665299913604, -18.97024349983758], [-48.3218070996179, -18.97035780007235], [-48.32282299988151, -18.971176700244484], [-48.32387740012189, -18.9720384000521], [-48.32408510034708, -18.971839600417184], [-48.32515169989102, -18.97265160009124], [-48.32511500035696, -18.972668299602276], [-48.323542800160055, -18.9733825996272]]]}}, {"type": "Feature", "properties": {"id": 14}, "geometry": {"type": "Polygon", "coordinates": [[[-48.27903179977767, -18.875735200219253], [-48.28015139996711, -18.87499139973329], [-48.28058819978554, -18.87559239956954], [-48.28017340008233, -18.875877599771343], [-48.279723900037936, -18.876157899567374], [-48.27913530005401, -18.8765419001885], [-48.279183699767884, -18.87667480020184], [-48.27896969979179, -18.87681009960636], [-48.2784496002688, -18.87612120003331], [-48.27897629991628, -18.87577199957809], [-48.27903179977767, -18.875735200219253]]]}}, {"type": "Feature", "properties": {"id": 15}, "geometry": {"type": "Polygon", "coordinates": [[[-48.19516869967572, -18.913567200166085], [-48.194691499612986, -18.91385710022496], [-48.194164799965506, -18.91417720041744], [-48.193125699891084, -18.912615900003743], [-48.19237640005076, -18.911082000134172], [-48.19225310030032, -18.91082950018125], [-48.19215749966884, -18.910678399688322], [-48.19225560041559, -18.91071519994648], [-48.19236190028141, -18.910755100167705], [-48.19239480017984, -18.91076740019531], [-48.19243619957092, -18.91078290001076], [-48.19317370030598, -18.91117959995853], [-48.19424530008047, -18.91189699994652], [-48.19512199968051, -18.912442499921383], [-48.195201700298185, -18.91247499962151], [-48.19530140003951, -18.912484500059577], [-48.195361099734896, -18.91248740037321], [-48.19543050041722, -18.912518800202406], [-48.195542299637395, -18.91264059988373], [-48.195992500253624, -18.912895299578395], [-48.19605549956162, -18.912930900140907], [-48.19615649972263, -18.913021299992977], [-48.19516869967572, -18.913567200166085]]]}}, {"type": "Feature", "properties": {"id": 16}, "geometry": {"type": "Polygon", "coordinates": [[[-48.34185189984527, -18.91066320024646], [-48.34120989991692, -18.91126189961693], [-48.34055340021922, -18.91191840021395], [-48.340085300396254, -18.91236730041055], [-48.33997689971409, -18.91218010023141], [-48.33969600007032, -18.91177599976254], [-48.339341200436024, -18.911381799930098], [-48.33892239964899, -18.910977700360547], [-48.33853310022238, -18.910652500112747], [-48.33783339979152, -18.91020900034505], [-48.33698579955495, -18.9098393996685], [-48.33653619968584, -18.90967509982596], [-48.33477730023219, -18.909259599550808], [-48.33399969962642, -18.909092900317034], [-48.33343299993294, -18.908881000257907], [-48.33298950016524, -18.908654399880618], [-48.33235470020918, -18.908228499845336], [-48.33197750026136, -18.907639300013614], [-48.33117629964647, -18.906375400004663], [-48.33287739967221, -18.906531800202345], [-48.33450540010409, -18.906531099630513], [-48.33531119985196, -18.906475199570764], [-48.3354026995749, -18.906783899956963], [-48.33582110016363, -18.90718789970174], [-48.33648479983361, -18.907829899630144], [-48.336152899636545, -18.908998600105292], [-48.33722059995068, -18.909314200090193], [-48.33950019967443, -18.910006699649443], [-48.34175089968426, -18.91067040021875], [-48.34185189984527, -18.91066320024646]]]}}, {"type": "Feature", "properties": {"id": 17}, "geometry": {"type": "Polygon", "coordinates": [[[-48.34729690003189, -18.966305800272437], [-48.347417199643985, -18.9643446999479], [-48.34945189958546, -18.96445719973991], [-48.34927040020875, -18.967285299576872], [-48.34729690003189, -18.966305800272437]]]}}, {"type": "Feature", "properties": {"id": 18}, "geometry": {"type": "Polygon", "coordinates": [[[-48.33531119985196, -18.906475199570764], [-48.33556970008158, -18.90645730036408], [-48.33602930041184, -18.906353999737235], [-48.338965100359076, -18.905340999787256], [-48.34140880027587, -18.904431299564806], [-48.34146239986984, -18.904729700015594], [-48.34167880013649, -18.907362799853274], [-48.34180140021442, -18.90962799963245], [-48.34185189984527, -18.91066320024646], [-48.34175089968426, -18.91067040021875], [-48.33950019967443, -18.910006699649443], [-48.33722059995068, -18.909314200090193], [-48.336152899636545, -18.908998600105292], [-48.33648479983361, -18.907829899630144], [-48.33582110016363, -18.90718789970174], [-48.3354026995749, -18.906783899956963], [-48.33531119985196, -18.906475199570764]]]}}, {"type": "Feature", "properties": {"id": 19}, "geometry": {"type": "Polygon", "coordinates": [[[-48.22091269976124, -18.909715099871903], [-48.22120440026282, -18.90908079993892], [-48.23096119999934, -18.90328879993814], [-48.23200819971862, -18.9050064996502], [-48.22172799994718, -18.91107310044316], [-48.22091269976124, -18.909715099871903]]]}}, {"type": "Feature", "properties": {"id": 20}, "geometry": {"type": "Polygon", "coordinates": [[[-48.32515169989102, -18.97265160009124], [-48.32605770030261, -18.972291499852815], [-48.32609520023328, -18.97228909956226], [-48.327022799662416, -18.97189970031087], [-48.33069339968063, -18.97035889994322], [-48.33326069972145, -18.969264200182636], [-48.33366459964151, -18.969075099736017], [-48.33386910007886, -18.969548799637323], [-48.333876300051145, -18.969565500047736], [-48.33395940010621, -18.969531199904907], [-48.335455200197316, -18.970851900194987], [-48.33493370042987, -18.97139740016985], [-48.334142399552036, -18.972228700194307], [-48.33375040036066, -18.972841199661616], [-48.33357900037055, -18.973362200305246], [-48.33322209991991, -18.974726899926452], [-48.33281309994459, -18.975210499564866], [-48.33185859999435, -18.975242699790726], [-48.330733700100154, -18.975113799961832], [-48.32977929997469, -18.97479140020289], [-48.32858629981786, -18.974904200368485], [-48.32717159968951, -18.974839799916765], [-48.32560360022592, -18.97413059994716], [-48.325121800130944, -18.973965499708015], [-48.323763400260646, -18.97346859999584], [-48.323542800160055, -18.9733825996272], [-48.32511500035696, -18.972668299602276], [-48.32515169989102, -18.97265160009124]]]}}, {"type": "Feature", "properties": {"id": 21}, "geometry": {"type": "Polygon", "coordinates": [[[-48.33238829978018, -18.965848600232675], [-48.332330899651254, -18.965805400398892], [-48.3308256000214, -18.96467200011267], [-48.33075720028455, -18.964743399987867], [-48.33050289988887, -18.96454160021466], [-48.331797699704055, -18.96307479966225], [-48.33184799968541, -18.96301779973163], [-48.33210590006718, -18.963239200228884], [-48.33245539999666, -18.962839199769235], [-48.33252169981654, -18.96286599956619], [-48.33284409957548, -18.962821900410347], [-48.33397869955729, -18.96365009957242], [-48.3339974000599, -18.96399439962181], [-48.33400619992614, -18.96403489969083], [-48.33339659987314, -18.964718200084803], [-48.33238829978018, -18.965848600232675]]]}}, {"type": "Feature", "properties": {"id": 22}, "geometry": {"type": "Polygon", "coordinates": [[[-48.372691800386235, -18.98529389979359], [-48.3755147003431, -18.98387840016801], [-48.37606869981062, -18.984842100182732], [-48.37613510035453, -18.984840899587823], [-48.37970439983815, -18.984779099975412], [-48.3794652997837, -18.98499030036203], [-48.3793536003883, -18.98519019986776], [-48.379489200166404, -18.985509300014144], [-48.379616099903046, -18.98570970044227], [-48.379757600133075, -18.98582079998988], [-48.37987960036321, -18.986038999799973], [-48.379974200049276, -18.986279799573026], [-48.3799966003628, -18.986539500397555], [-48.380055700210335, -18.98668929957148], [-48.38024610017732, -18.986853999612322], [-48.38043340018123, -18.98684390022578], [-48.38058849995929, -18.9868669003871], [-48.380750299686554, -18.98707340001738], [-48.38071779998643, -18.987435600172773], [-48.37823500024501, -18.9896567997215], [-48.37815869996399, -18.989691699712125], [-48.378037799604726, -18.989808000039147], [-48.378000299674056, -18.98984409972536], [-48.37483149977385, -18.98863630032497], [-48.3746927002079, -18.988577800325174], [-48.37464250005132, -18.98854569992409], [-48.37450039997344, -18.98842929977235], [-48.37434980040291, -18.988204499837764], [-48.372691800386235, -18.98529389979359]]]}}, {"type": "Feature", "properties": {"id": 23}, "geometry": {"type": "MultiPolygon", "coordinates": [[[[-48.36292660008246, -18.98302169969162], [-48.36388749960838, -18.982550200431376], [-48.3646985001356, -18.9839753003198], [-48.363714499724324, -18.98445200035951], [-48.36292660008246, -18.98302169969162]]], [[[-48.33339659987314, -18.964718200084803], [-48.33344429991445, -18.964711500135593], [-48.3338897997744, -18.96465229956391], [-48.334881900379344, -18.965363399800992], [-48.33493480030074, -18.965833700265023], [-48.33497089998701, -18.965887299858935], [-48.33403149965392, -18.96695600021917], [-48.33392059975586, -18.96700010027439], [-48.33238829978018, -18.965848600232675], [-48.33339659987314, -18.964718200084803]]]]}}, {"type": "Feature", "properties": {"id": 24}, "geometry": {"type": "Polygon", "coordinates": [[[-48.34966150007813, -18.951446800329506], [-48.34973130005943, -18.95098340036361], [-48.35363959988757, -18.952108999930374], [-48.35435740007392, -18.95229060003112], [-48.35418369961798, -18.952745700153912], [-48.35380300040811, -18.95263010039878], [-48.34966150007813, -18.951446800329506]]]}}]}